GOES 18                 
1 51850U 22021A   26073.71714742  .00000096  00000+0  00000+0 0  9990
2 51850   0.0350  37.8704 0000832  25.8264 229.7934  1.00272889  5646
GOES 19                 
1 60133U 24119A   26073.91014319 -.00000249  00000+0  00000+0 0  9990
2 60133   0.0396 336.0564 0001074  66.2650  22.6583  1.00271425  6012
